<?xml version="1.0" encoding="UTF-8"?>
<gpx version="1.1" creator="gpx-text-routes"
  xmlns="http://www.topografix.com/GPX/1/1"
  xmlns:xsi="http://www.w3.org/2001/XMLSchema-instance"
  xsi:schemaLocation="http://www.topografix.com/GPX/1/1 http://www.topografix.com/GPX/1/1/gpx.xsd">
  <metadata>
    <name>33 beautified glyph (floating)</name>
    <desc>Invented sample: an AI-beautified 33 that traces clean digit strokes. Geometry floats off the street grid — it looks like 33 but is not continuously runnable on roads.</desc>
  </metadata>
  
  <trk>
    <name>33 beautified glyph (floating)</name>
    <desc>Invented sample: an AI-beautified 33 that traces clean digit strokes. Geometry floats off the street grid — it looks like 33 but is not continuously runnable on roads.</desc>
    <trkseg>
      <trkpt lat="37.7584212" lon="-122.4376768"></trkpt>
      <trkpt lat="37.7584212" lon="-122.4375873"></trkpt>
      <trkpt lat="37.7584212" lon="-122.4374978"></trkpt>
      <trkpt lat="37.7584212" lon="-122.4374084"></trkpt>
      <trkpt lat="37.7584212" lon="-122.4373189"></trkpt>
      <trkpt lat="37.7584212" lon="-122.4372294"></trkpt>
      <trkpt lat="37.7584212" lon="-122.4371399"></trkpt>
      <trkpt lat="37.7584212" lon="-122.4370505"></trkpt>
      <trkpt lat="37.7584212" lon="-122.4369610"></trkpt>
      <trkpt lat="37.7584212" lon="-122.4368715"></trkpt>
      <trkpt lat="37.7584212" lon="-122.4367820"></trkpt>
      <trkpt lat="37.7584212" lon="-122.4366926"></trkpt>
      <trkpt lat="37.7584212" lon="-122.4366031"></trkpt>
      <trkpt lat="37.7584212" lon="-122.4365136"></trkpt>
      <trkpt lat="37.7584212" lon="-122.4364241"></trkpt>
      <trkpt lat="37.7584212" lon="-122.4363347"></trkpt>
      <trkpt lat="37.7584212" lon="-122.4362452"></trkpt>
      <trkpt lat="37.7584212" lon="-122.4361557"></trkpt>
      <trkpt lat="37.7584212" lon="-122.4360662"></trkpt>
      <trkpt lat="37.7584212" lon="-122.4359767"></trkpt>
      <trkpt lat="37.7584212" lon="-122.4358873"></trkpt>
      <trkpt lat="37.7584212" lon="-122.4357978"></trkpt>
      <trkpt lat="37.7584212" lon="-122.4357083"></trkpt>
      <trkpt lat="37.7584212" lon="-122.4356188"></trkpt>
      <trkpt lat="37.7584212" lon="-122.4355294"></trkpt>
      <trkpt lat="37.7583515" lon="-122.4355294"></trkpt>
      <trkpt lat="37.7582818" lon="-122.4355294"></trkpt>
      <trkpt lat="37.7582121" lon="-122.4355294"></trkpt>
      <trkpt lat="37.7581424" lon="-122.4355294"></trkpt>
      <trkpt lat="37.7580727" lon="-122.4355294"></trkpt>
      <trkpt lat="37.7580030" lon="-122.4355294"></trkpt>
      <trkpt lat="37.7579333" lon="-122.4355294"></trkpt>
      <trkpt lat="37.7578636" lon="-122.4355294"></trkpt>
      <trkpt lat="37.7577939" lon="-122.4355294"></trkpt>
      <trkpt lat="37.7577242" lon="-122.4355294"></trkpt>
      <trkpt lat="37.7576545" lon="-122.4355294"></trkpt>
      <trkpt lat="37.7575848" lon="-122.4355294"></trkpt>
      <trkpt lat="37.7575151" lon="-122.4355294"></trkpt>
      <trkpt lat="37.7574454" lon="-122.4355294"></trkpt>
      <trkpt lat="37.7573758" lon="-122.4355294"></trkpt>
      <trkpt lat="37.7573061" lon="-122.4355294"></trkpt>
      <trkpt lat="37.7572364" lon="-122.4355294"></trkpt>
      <trkpt lat="37.7571667" lon="-122.4355294"></trkpt>
      <trkpt lat="37.7570970" lon="-122.4355294"></trkpt>
      <trkpt lat="37.7570273" lon="-122.4355294"></trkpt>
      <trkpt lat="37.7569576" lon="-122.4355294"></trkpt>
      <trkpt lat="37.7568879" lon="-122.4355294"></trkpt>
      <trkpt lat="37.7568182" lon="-122.4355294"></trkpt>
      <trkpt lat="37.7567485" lon="-122.4355294"></trkpt>
      <trkpt lat="37.7566788" lon="-122.4355294"></trkpt>
      <trkpt lat="37.7566091" lon="-122.4355294"></trkpt>
      <trkpt lat="37.7565394" lon="-122.4355294"></trkpt>
      <trkpt lat="37.7564697" lon="-122.4355294"></trkpt>
      <trkpt lat="37.7564000" lon="-122.4355294"></trkpt>
      <trkpt lat="37.7564000" lon="-122.4356196"></trkpt>
      <trkpt lat="37.7564000" lon="-122.4357098"></trkpt>
      <trkpt lat="37.7564000" lon="-122.4358001"></trkpt>
      <trkpt lat="37.7564000" lon="-122.4358903"></trkpt>
      <trkpt lat="37.7564000" lon="-122.4359805"></trkpt>
      <trkpt lat="37.7564000" lon="-122.4360707"></trkpt>
      <trkpt lat="37.7564000" lon="-122.4361610"></trkpt>
      <trkpt lat="37.7564000" lon="-122.4362512"></trkpt>
      <trkpt lat="37.7564000" lon="-122.4363414"></trkpt>
      <trkpt lat="37.7564000" lon="-122.4364316"></trkpt>
      <trkpt lat="37.7564000" lon="-122.4365219"></trkpt>
      <trkpt lat="37.7564000" lon="-122.4366121"></trkpt>
      <trkpt lat="37.7564000" lon="-122.4367023"></trkpt>
      <trkpt lat="37.7564000" lon="-122.4367926"></trkpt>
      <trkpt lat="37.7564000" lon="-122.4368828"></trkpt>
      <trkpt lat="37.7564000" lon="-122.4369730"></trkpt>
      <trkpt lat="37.7564000" lon="-122.4370632"></trkpt>
      <trkpt lat="37.7564000" lon="-122.4369730"></trkpt>
      <trkpt lat="37.7564000" lon="-122.4368828"></trkpt>
      <trkpt lat="37.7564000" lon="-122.4367926"></trkpt>
      <trkpt lat="37.7564000" lon="-122.4367023"></trkpt>
      <trkpt lat="37.7564000" lon="-122.4366121"></trkpt>
      <trkpt lat="37.7564000" lon="-122.4365219"></trkpt>
      <trkpt lat="37.7564000" lon="-122.4364316"></trkpt>
      <trkpt lat="37.7564000" lon="-122.4363414"></trkpt>
      <trkpt lat="37.7564000" lon="-122.4362512"></trkpt>
      <trkpt lat="37.7564000" lon="-122.4361610"></trkpt>
      <trkpt lat="37.7564000" lon="-122.4360707"></trkpt>
      <trkpt lat="37.7564000" lon="-122.4359805"></trkpt>
      <trkpt lat="37.7564000" lon="-122.4358903"></trkpt>
      <trkpt lat="37.7564000" lon="-122.4358001"></trkpt>
      <trkpt lat="37.7564000" lon="-122.4357098"></trkpt>
      <trkpt lat="37.7564000" lon="-122.4356196"></trkpt>
      <trkpt lat="37.7564000" lon="-122.4355294"></trkpt>
      <trkpt lat="37.7563303" lon="-122.4355294"></trkpt>
      <trkpt lat="37.7562606" lon="-122.4355294"></trkpt>
      <trkpt lat="37.7561909" lon="-122.4355294"></trkpt>
      <trkpt lat="37.7561212" lon="-122.4355294"></trkpt>
      <trkpt lat="37.7560515" lon="-122.4355294"></trkpt>
      <trkpt lat="37.7559818" lon="-122.4355294"></trkpt>
      <trkpt lat="37.7559121" lon="-122.4355294"></trkpt>
      <trkpt lat="37.7558424" lon="-122.4355294"></trkpt>
      <trkpt lat="37.7557727" lon="-122.4355294"></trkpt>
      <trkpt lat="37.7557030" lon="-122.4355294"></trkpt>
      <trkpt lat="37.7556333" lon="-122.4355294"></trkpt>
      <trkpt lat="37.7555636" lon="-122.4355294"></trkpt>
      <trkpt lat="37.7554939" lon="-122.4355294"></trkpt>
      <trkpt lat="37.7554242" lon="-122.4355294"></trkpt>
      <trkpt lat="37.7553546" lon="-122.4355294"></trkpt>
      <trkpt lat="37.7552849" lon="-122.4355294"></trkpt>
      <trkpt lat="37.7552152" lon="-122.4355294"></trkpt>
      <trkpt lat="37.7551455" lon="-122.4355294"></trkpt>
      <trkpt lat="37.7550758" lon="-122.4355294"></trkpt>
      <trkpt lat="37.7550061" lon="-122.4355294"></trkpt>
      <trkpt lat="37.7549364" lon="-122.4355294"></trkpt>
      <trkpt lat="37.7548667" lon="-122.4355294"></trkpt>
      <trkpt lat="37.7547970" lon="-122.4355294"></trkpt>
      <trkpt lat="37.7547273" lon="-122.4355294"></trkpt>
      <trkpt lat="37.7546576" lon="-122.4355294"></trkpt>
      <trkpt lat="37.7545879" lon="-122.4355294"></trkpt>
      <trkpt lat="37.7545182" lon="-122.4355294"></trkpt>
      <trkpt lat="37.7544485" lon="-122.4355294"></trkpt>
      <trkpt lat="37.7543788" lon="-122.4355294"></trkpt>
      <trkpt lat="37.7543788" lon="-122.4356188"></trkpt>
      <trkpt lat="37.7543788" lon="-122.4357083"></trkpt>
      <trkpt lat="37.7543788" lon="-122.4357978"></trkpt>
      <trkpt lat="37.7543788" lon="-122.4358873"></trkpt>
      <trkpt lat="37.7543788" lon="-122.4359767"></trkpt>
      <trkpt lat="37.7543788" lon="-122.4360662"></trkpt>
      <trkpt lat="37.7543788" lon="-122.4361557"></trkpt>
      <trkpt lat="37.7543788" lon="-122.4362452"></trkpt>
      <trkpt lat="37.7543788" lon="-122.4363347"></trkpt>
      <trkpt lat="37.7543788" lon="-122.4364241"></trkpt>
      <trkpt lat="37.7543788" lon="-122.4365136"></trkpt>
      <trkpt lat="37.7543788" lon="-122.4366031"></trkpt>
      <trkpt lat="37.7543788" lon="-122.4366926"></trkpt>
      <trkpt lat="37.7543788" lon="-122.4367820"></trkpt>
      <trkpt lat="37.7543788" lon="-122.4368715"></trkpt>
      <trkpt lat="37.7543788" lon="-122.4369610"></trkpt>
      <trkpt lat="37.7543788" lon="-122.4370505"></trkpt>
      <trkpt lat="37.7543788" lon="-122.4371399"></trkpt>
      <trkpt lat="37.7543788" lon="-122.4372294"></trkpt>
      <trkpt lat="37.7543788" lon="-122.4373189"></trkpt>
      <trkpt lat="37.7543788" lon="-122.4374084"></trkpt>
      <trkpt lat="37.7543788" lon="-122.4374978"></trkpt>
      <trkpt lat="37.7543788" lon="-122.4375873"></trkpt>
      <trkpt lat="37.7543788" lon="-122.4376768"></trkpt>
      <trkpt lat="37.7584212" lon="-122.4328706"></trkpt>
      <trkpt lat="37.7584212" lon="-122.4327812"></trkpt>
      <trkpt lat="37.7584212" lon="-122.4326917"></trkpt>
      <trkpt lat="37.7584212" lon="-122.4326022"></trkpt>
      <trkpt lat="37.7584212" lon="-122.4325127"></trkpt>
      <trkpt lat="37.7584212" lon="-122.4324233"></trkpt>
      <trkpt lat="37.7584212" lon="-122.4323338"></trkpt>
      <trkpt lat="37.7584212" lon="-122.4322443"></trkpt>
      <trkpt lat="37.7584212" lon="-122.4321548"></trkpt>
      <trkpt lat="37.7584212" lon="-122.4320653"></trkpt>
      <trkpt lat="37.7584212" lon="-122.4319759"></trkpt>
      <trkpt lat="37.7584212" lon="-122.4318864"></trkpt>
      <trkpt lat="37.7584212" lon="-122.4317969"></trkpt>
      <trkpt lat="37.7584212" lon="-122.4317074"></trkpt>
      <trkpt lat="37.7584212" lon="-122.4316180"></trkpt>
      <trkpt lat="37.7584212" lon="-122.4315285"></trkpt>
      <trkpt lat="37.7584212" lon="-122.4314390"></trkpt>
      <trkpt lat="37.7584212" lon="-122.4313495"></trkpt>
      <trkpt lat="37.7584212" lon="-122.4312601"></trkpt>
      <trkpt lat="37.7584212" lon="-122.4311706"></trkpt>
      <trkpt lat="37.7584212" lon="-122.4310811"></trkpt>
      <trkpt lat="37.7584212" lon="-122.4309916"></trkpt>
      <trkpt lat="37.7584212" lon="-122.4309022"></trkpt>
      <trkpt lat="37.7584212" lon="-122.4308127"></trkpt>
      <trkpt lat="37.7584212" lon="-122.4307232"></trkpt>
      <trkpt lat="37.7583515" lon="-122.4307232"></trkpt>
      <trkpt lat="37.7582818" lon="-122.4307232"></trkpt>
      <trkpt lat="37.7582121" lon="-122.4307232"></trkpt>
      <trkpt lat="37.7581424" lon="-122.4307232"></trkpt>
      <trkpt lat="37.7580727" lon="-122.4307232"></trkpt>
      <trkpt lat="37.7580030" lon="-122.4307232"></trkpt>
      <trkpt lat="37.7579333" lon="-122.4307232"></trkpt>
      <trkpt lat="37.7578636" lon="-122.4307232"></trkpt>
      <trkpt lat="37.7577939" lon="-122.4307232"></trkpt>
      <trkpt lat="37.7577242" lon="-122.4307232"></trkpt>
      <trkpt lat="37.7576545" lon="-122.4307232"></trkpt>
      <trkpt lat="37.7575848" lon="-122.4307232"></trkpt>
      <trkpt lat="37.7575151" lon="-122.4307232"></trkpt>
      <trkpt lat="37.7574454" lon="-122.4307232"></trkpt>
      <trkpt lat="37.7573758" lon="-122.4307232"></trkpt>
      <trkpt lat="37.7573061" lon="-122.4307232"></trkpt>
      <trkpt lat="37.7572364" lon="-122.4307232"></trkpt>
      <trkpt lat="37.7571667" lon="-122.4307232"></trkpt>
      <trkpt lat="37.7570970" lon="-122.4307232"></trkpt>
      <trkpt lat="37.7570273" lon="-122.4307232"></trkpt>
      <trkpt lat="37.7569576" lon="-122.4307232"></trkpt>
      <trkpt lat="37.7568879" lon="-122.4307232"></trkpt>
      <trkpt lat="37.7568182" lon="-122.4307232"></trkpt>
      <trkpt lat="37.7567485" lon="-122.4307232"></trkpt>
      <trkpt lat="37.7566788" lon="-122.4307232"></trkpt>
      <trkpt lat="37.7566091" lon="-122.4307232"></trkpt>
      <trkpt lat="37.7565394" lon="-122.4307232"></trkpt>
      <trkpt lat="37.7564697" lon="-122.4307232"></trkpt>
      <trkpt lat="37.7564000" lon="-122.4307232"></trkpt>
      <trkpt lat="37.7564000" lon="-122.4308134"></trkpt>
      <trkpt lat="37.7564000" lon="-122.4309037"></trkpt>
      <trkpt lat="37.7564000" lon="-122.4309939"></trkpt>
      <trkpt lat="37.7564000" lon="-122.4310841"></trkpt>
      <trkpt lat="37.7564000" lon="-122.4311743"></trkpt>
      <trkpt lat="37.7564000" lon="-122.4312646"></trkpt>
      <trkpt lat="37.7564000" lon="-122.4313548"></trkpt>
      <trkpt lat="37.7564000" lon="-122.4314450"></trkpt>
      <trkpt lat="37.7564000" lon="-122.4315353"></trkpt>
      <trkpt lat="37.7564000" lon="-122.4316255"></trkpt>
      <trkpt lat="37.7564000" lon="-122.4317157"></trkpt>
      <trkpt lat="37.7564000" lon="-122.4318059"></trkpt>
      <trkpt lat="37.7564000" lon="-122.4318962"></trkpt>
      <trkpt lat="37.7564000" lon="-122.4319864"></trkpt>
      <trkpt lat="37.7564000" lon="-122.4320766"></trkpt>
      <trkpt lat="37.7564000" lon="-122.4321669"></trkpt>
      <trkpt lat="37.7564000" lon="-122.4322571"></trkpt>
      <trkpt lat="37.7564000" lon="-122.4321669"></trkpt>
      <trkpt lat="37.7564000" lon="-122.4320766"></trkpt>
      <trkpt lat="37.7564000" lon="-122.4319864"></trkpt>
      <trkpt lat="37.7564000" lon="-122.4318962"></trkpt>
      <trkpt lat="37.7564000" lon="-122.4318059"></trkpt>
      <trkpt lat="37.7564000" lon="-122.4317157"></trkpt>
      <trkpt lat="37.7564000" lon="-122.4316255"></trkpt>
      <trkpt lat="37.7564000" lon="-122.4315353"></trkpt>
      <trkpt lat="37.7564000" lon="-122.4314450"></trkpt>
      <trkpt lat="37.7564000" lon="-122.4313548"></trkpt>
      <trkpt lat="37.7564000" lon="-122.4312646"></trkpt>
      <trkpt lat="37.7564000" lon="-122.4311743"></trkpt>
      <trkpt lat="37.7564000" lon="-122.4310841"></trkpt>
      <trkpt lat="37.7564000" lon="-122.4309939"></trkpt>
      <trkpt lat="37.7564000" lon="-122.4309037"></trkpt>
      <trkpt lat="37.7564000" lon="-122.4308134"></trkpt>
      <trkpt lat="37.7564000" lon="-122.4307232"></trkpt>
      <trkpt lat="37.7563303" lon="-122.4307232"></trkpt>
      <trkpt lat="37.7562606" lon="-122.4307232"></trkpt>
      <trkpt lat="37.7561909" lon="-122.4307232"></trkpt>
      <trkpt lat="37.7561212" lon="-122.4307232"></trkpt>
      <trkpt lat="37.7560515" lon="-122.4307232"></trkpt>
      <trkpt lat="37.7559818" lon="-122.4307232"></trkpt>
      <trkpt lat="37.7559121" lon="-122.4307232"></trkpt>
      <trkpt lat="37.7558424" lon="-122.4307232"></trkpt>
      <trkpt lat="37.7557727" lon="-122.4307232"></trkpt>
      <trkpt lat="37.7557030" lon="-122.4307232"></trkpt>
      <trkpt lat="37.7556333" lon="-122.4307232"></trkpt>
      <trkpt lat="37.7555636" lon="-122.4307232"></trkpt>
      <trkpt lat="37.7554939" lon="-122.4307232"></trkpt>
      <trkpt lat="37.7554242" lon="-122.4307232"></trkpt>
      <trkpt lat="37.7553546" lon="-122.4307232"></trkpt>
      <trkpt lat="37.7552849" lon="-122.4307232"></trkpt>
      <trkpt lat="37.7552152" lon="-122.4307232"></trkpt>
      <trkpt lat="37.7551455" lon="-122.4307232"></trkpt>
      <trkpt lat="37.7550758" lon="-122.4307232"></trkpt>
      <trkpt lat="37.7550061" lon="-122.4307232"></trkpt>
      <trkpt lat="37.7549364" lon="-122.4307232"></trkpt>
      <trkpt lat="37.7548667" lon="-122.4307232"></trkpt>
      <trkpt lat="37.7547970" lon="-122.4307232"></trkpt>
      <trkpt lat="37.7547273" lon="-122.4307232"></trkpt>
      <trkpt lat="37.7546576" lon="-122.4307232"></trkpt>
      <trkpt lat="37.7545879" lon="-122.4307232"></trkpt>
      <trkpt lat="37.7545182" lon="-122.4307232"></trkpt>
      <trkpt lat="37.7544485" lon="-122.4307232"></trkpt>
      <trkpt lat="37.7543788" lon="-122.4307232"></trkpt>
      <trkpt lat="37.7543788" lon="-122.4308127"></trkpt>
      <trkpt lat="37.7543788" lon="-122.4309022"></trkpt>
      <trkpt lat="37.7543788" lon="-122.4309916"></trkpt>
      <trkpt lat="37.7543788" lon="-122.4310811"></trkpt>
      <trkpt lat="37.7543788" lon="-122.4311706"></trkpt>
      <trkpt lat="37.7543788" lon="-122.4312601"></trkpt>
      <trkpt lat="37.7543788" lon="-122.4313495"></trkpt>
      <trkpt lat="37.7543788" lon="-122.4314390"></trkpt>
      <trkpt lat="37.7543788" lon="-122.4315285"></trkpt>
      <trkpt lat="37.7543788" lon="-122.4316180"></trkpt>
      <trkpt lat="37.7543788" lon="-122.4317074"></trkpt>
      <trkpt lat="37.7543788" lon="-122.4317969"></trkpt>
      <trkpt lat="37.7543788" lon="-122.4318864"></trkpt>
      <trkpt lat="37.7543788" lon="-122.4319759"></trkpt>
      <trkpt lat="37.7543788" lon="-122.4320653"></trkpt>
      <trkpt lat="37.7543788" lon="-122.4321548"></trkpt>
      <trkpt lat="37.7543788" lon="-122.4322443"></trkpt>
      <trkpt lat="37.7543788" lon="-122.4323338"></trkpt>
      <trkpt lat="37.7543788" lon="-122.4324233"></trkpt>
      <trkpt lat="37.7543788" lon="-122.4325127"></trkpt>
      <trkpt lat="37.7543788" lon="-122.4326022"></trkpt>
      <trkpt lat="37.7543788" lon="-122.4326917"></trkpt>
      <trkpt lat="37.7543788" lon="-122.4327812"></trkpt>
      <trkpt lat="37.7543788" lon="-122.4328706"></trkpt>
    </trkseg>
  </trk>
</gpx>
