<?xml version="1.0" encoding="UTF-8"?>
<gpx version="1.1" creator="gpx-text-routes"
  xmlns="http://www.topografix.com/GPX/1/1"
  xmlns:xsi="http://www.w3.org/2001/XMLSchema-instance"
  xsi:schemaLocation="http://www.topografix.com/GPX/1/1 http://www.topografix.com/GPX/1/1/gpx.xsd">
  <metadata>
    <name>33 practiced run with pause/resume</name>
    <desc>Invented sample: a practiced run that approximates the beautified 33. Triangle doodles = PAUSE tracking; Z doodles = RESUME. Straight jump lines between them are what the GPS draws while the watch is paused.</desc>
  </metadata>
  <wpt lat="37.7566830" lon="-122.4373984"><name>PAUSE 1</name><desc>Pause tracking here, then move to RESUME 1. Triangle doodle = pause.</desc><sym>Triangle</sym></wpt>
  <wpt lat="37.7543788" lon="-122.4353985"><name>PAUSE 2</name><desc>Pause tracking here, then move to RESUME 2. Triangle doodle = pause.</desc><sym>Triangle</sym></wpt>
  <wpt lat="37.7566830" lon="-122.4325923"><name>PAUSE 3</name><desc>Pause tracking here, then move to RESUME 3. Triangle doodle = pause.</desc><sym>Triangle</sym></wpt>
  <wpt lat="37.7561170" lon="-122.4373984"><name>RESUME 1</name><desc>Resume tracking here. Z doodle = resume.</desc><sym>Flag</sym></wpt>
  <wpt lat="37.7543788" lon="-122.4330015"><name>RESUME 2</name><desc>Resume tracking here. Z doodle = resume.</desc><sym>Flag</sym></wpt>
  <wpt lat="37.7561170" lon="-122.4325923"><name>RESUME 3</name><desc>Resume tracking here. Z doodle = resume.</desc><sym>Flag</sym></wpt>
  <trk>
    <name>33 practiced run with pause/resume</name>
    <desc>Invented sample: a practiced run that approximates the beautified 33. Triangle doodles = PAUSE tracking; Z doodles = RESUME. Straight jump lines between them are what the GPS draws while the watch is paused.</desc>
    <trkseg>
      <trkpt lat="37.7584212" lon="-122.4376768"></trkpt>
      <trkpt lat="37.7584212" lon="-122.4375873"></trkpt>
      <trkpt lat="37.7584212" lon="-122.4374978"></trkpt>
      <trkpt lat="37.7584212" lon="-122.4374084"></trkpt>
      <trkpt lat="37.7584212" lon="-122.4373189"></trkpt>
      <trkpt lat="37.7584212" lon="-122.4372294"></trkpt>
      <trkpt lat="37.7584212" lon="-122.4371399"></trkpt>
      <trkpt lat="37.7584212" lon="-122.4370505"></trkpt>
      <trkpt lat="37.7584212" lon="-122.4369610"></trkpt>
      <trkpt lat="37.7584212" lon="-122.4368715"></trkpt>
      <trkpt lat="37.7584212" lon="-122.4367820"></trkpt>
      <trkpt lat="37.7584212" lon="-122.4366926"></trkpt>
      <trkpt lat="37.7584212" lon="-122.4366031"></trkpt>
      <trkpt lat="37.7584212" lon="-122.4365136"></trkpt>
      <trkpt lat="37.7584212" lon="-122.4364241"></trkpt>
      <trkpt lat="37.7584212" lon="-122.4363347"></trkpt>
      <trkpt lat="37.7584212" lon="-122.4362452"></trkpt>
      <trkpt lat="37.7584212" lon="-122.4361557"></trkpt>
      <trkpt lat="37.7584212" lon="-122.4360662"></trkpt>
      <trkpt lat="37.7584212" lon="-122.4359767"></trkpt>
      <trkpt lat="37.7584212" lon="-122.4358873"></trkpt>
      <trkpt lat="37.7584212" lon="-122.4357978"></trkpt>
      <trkpt lat="37.7584212" lon="-122.4357083"></trkpt>
      <trkpt lat="37.7584212" lon="-122.4356188"></trkpt>
      <trkpt lat="37.7584212" lon="-122.4355294"></trkpt>
      <trkpt lat="37.7583517" lon="-122.4355294"></trkpt>
      <trkpt lat="37.7582821" lon="-122.4355294"></trkpt>
      <trkpt lat="37.7582126" lon="-122.4355294"></trkpt>
      <trkpt lat="37.7581431" lon="-122.4355294"></trkpt>
      <trkpt lat="37.7580736" lon="-122.4355294"></trkpt>
      <trkpt lat="37.7580040" lon="-122.4355294"></trkpt>
      <trkpt lat="37.7579345" lon="-122.4355294"></trkpt>
      <trkpt lat="37.7578650" lon="-122.4355294"></trkpt>
      <trkpt lat="37.7577954" lon="-122.4355294"></trkpt>
      <trkpt lat="37.7577259" lon="-122.4355294"></trkpt>
      <trkpt lat="37.7576564" lon="-122.4355294"></trkpt>
      <trkpt lat="37.7575868" lon="-122.4355294"></trkpt>
      <trkpt lat="37.7575173" lon="-122.4355294"></trkpt>
      <trkpt lat="37.7574478" lon="-122.4355294"></trkpt>
      <trkpt lat="37.7573783" lon="-122.4355294"></trkpt>
      <trkpt lat="37.7573087" lon="-122.4355294"></trkpt>
      <trkpt lat="37.7572392" lon="-122.4355294"></trkpt>
      <trkpt lat="37.7571697" lon="-122.4355294"></trkpt>
      <trkpt lat="37.7571001" lon="-122.4355294"></trkpt>
      <trkpt lat="37.7570306" lon="-122.4355294"></trkpt>
      <trkpt lat="37.7569611" lon="-122.4355294"></trkpt>
      <trkpt lat="37.7568916" lon="-122.4355294"></trkpt>
      <trkpt lat="37.7568220" lon="-122.4355294"></trkpt>
      <trkpt lat="37.7567525" lon="-122.4355294"></trkpt>
      <trkpt lat="37.7566830" lon="-122.4355294"></trkpt>
      <trkpt lat="37.7566830" lon="-122.4356188"></trkpt>
      <trkpt lat="37.7566830" lon="-122.4357083"></trkpt>
      <trkpt lat="37.7566830" lon="-122.4357978"></trkpt>
      <trkpt lat="37.7566830" lon="-122.4358873"></trkpt>
      <trkpt lat="37.7566830" lon="-122.4359767"></trkpt>
      <trkpt lat="37.7566830" lon="-122.4360662"></trkpt>
      <trkpt lat="37.7566830" lon="-122.4361557"></trkpt>
      <trkpt lat="37.7566830" lon="-122.4362452"></trkpt>
      <trkpt lat="37.7566830" lon="-122.4363347"></trkpt>
      <trkpt lat="37.7566830" lon="-122.4364241"></trkpt>
      <trkpt lat="37.7566830" lon="-122.4365136"></trkpt>
      <trkpt lat="37.7566830" lon="-122.4366031"></trkpt>
      <trkpt lat="37.7566830" lon="-122.4366926"></trkpt>
      <trkpt lat="37.7566830" lon="-122.4367820"></trkpt>
      <trkpt lat="37.7566830" lon="-122.4368715"></trkpt>
      <trkpt lat="37.7566830" lon="-122.4369610"></trkpt>
      <trkpt lat="37.7566830" lon="-122.4370505"></trkpt>
      <trkpt lat="37.7566830" lon="-122.4371399"></trkpt>
      <trkpt lat="37.7566830" lon="-122.4372294"></trkpt>
      <trkpt lat="37.7566830" lon="-122.4373189"></trkpt>
      <trkpt lat="37.7567556" lon="-122.4373984"></trkpt>
      <trkpt lat="37.7567435" lon="-122.4373896"></trkpt>
      <trkpt lat="37.7567314" lon="-122.4373808"></trkpt>
      <trkpt lat="37.7567193" lon="-122.4373719"></trkpt>
      <trkpt lat="37.7567072" lon="-122.4373631"></trkpt>
      <trkpt lat="37.7566951" lon="-122.4373542"></trkpt>
      <trkpt lat="37.7566830" lon="-122.4373454"></trkpt>
      <trkpt lat="37.7566709" lon="-122.4373366"></trkpt>
      <trkpt lat="37.7566588" lon="-122.4373277"></trkpt>
      <trkpt lat="37.7566467" lon="-122.4373189"></trkpt>
      <trkpt lat="37.7566467" lon="-122.4373366"></trkpt>
      <trkpt lat="37.7566467" lon="-122.4373542"></trkpt>
      <trkpt lat="37.7566467" lon="-122.4373719"></trkpt>
      <trkpt lat="37.7566467" lon="-122.4373896"></trkpt>
      <trkpt lat="37.7566467" lon="-122.4374073"></trkpt>
      <trkpt lat="37.7566467" lon="-122.4374249"></trkpt>
      <trkpt lat="37.7566467" lon="-122.4374426"></trkpt>
      <trkpt lat="37.7566467" lon="-122.4374603"></trkpt>
      <trkpt lat="37.7566467" lon="-122.4374780"></trkpt>
      <trkpt lat="37.7566588" lon="-122.4374691"></trkpt>
      <trkpt lat="37.7566709" lon="-122.4374603"></trkpt>
      <trkpt lat="37.7566830" lon="-122.4374515"></trkpt>
      <trkpt lat="37.7566951" lon="-122.4374426"></trkpt>
      <trkpt lat="37.7567072" lon="-122.4374338"></trkpt>
      <trkpt lat="37.7567193" lon="-122.4374249"></trkpt>
      <trkpt lat="37.7567314" lon="-122.4374161"></trkpt>
      <trkpt lat="37.7567435" lon="-122.4374073"></trkpt>
      <trkpt lat="37.7567556" lon="-122.4373984"></trkpt>
      <trkpt lat="37.7561799" lon="-122.4374780"></trkpt>
      <trkpt lat="37.7561799" lon="-122.4374603"></trkpt>
      <trkpt lat="37.7561799" lon="-122.4374426"></trkpt>
      <trkpt lat="37.7561799" lon="-122.4374249"></trkpt>
      <trkpt lat="37.7561799" lon="-122.4374073"></trkpt>
      <trkpt lat="37.7561799" lon="-122.4373896"></trkpt>
      <trkpt lat="37.7561799" lon="-122.4373719"></trkpt>
      <trkpt lat="37.7561799" lon="-122.4373542"></trkpt>
      <trkpt lat="37.7561799" lon="-122.4373366"></trkpt>
      <trkpt lat="37.7561799" lon="-122.4373189"></trkpt>
      <trkpt lat="37.7561702" lon="-122.4373311"></trkpt>
      <trkpt lat="37.7561606" lon="-122.4373434"></trkpt>
      <trkpt lat="37.7561509" lon="-122.4373556"></trkpt>
      <trkpt lat="37.7561412" lon="-122.4373678"></trkpt>
      <trkpt lat="37.7561315" lon="-122.4373801"></trkpt>
      <trkpt lat="37.7561219" lon="-122.4373923"></trkpt>
      <trkpt lat="37.7561122" lon="-122.4374045"></trkpt>
      <trkpt lat="37.7561025" lon="-122.4374168"></trkpt>
      <trkpt lat="37.7560928" lon="-122.4374290"></trkpt>
      <trkpt lat="37.7560832" lon="-122.4374413"></trkpt>
      <trkpt lat="37.7560735" lon="-122.4374535"></trkpt>
      <trkpt lat="37.7560638" lon="-122.4374657"></trkpt>
      <trkpt lat="37.7560542" lon="-122.4374780"></trkpt>
      <trkpt lat="37.7560542" lon="-122.4374603"></trkpt>
      <trkpt lat="37.7560542" lon="-122.4374426"></trkpt>
      <trkpt lat="37.7560542" lon="-122.4374249"></trkpt>
      <trkpt lat="37.7560542" lon="-122.4374073"></trkpt>
      <trkpt lat="37.7560542" lon="-122.4373896"></trkpt>
      <trkpt lat="37.7560542" lon="-122.4373719"></trkpt>
      <trkpt lat="37.7560542" lon="-122.4373542"></trkpt>
      <trkpt lat="37.7560542" lon="-122.4373366"></trkpt>
      <trkpt lat="37.7560542" lon="-122.4373189"></trkpt>
      <trkpt lat="37.7561170" lon="-122.4373189"></trkpt>
      <trkpt lat="37.7561170" lon="-122.4372294"></trkpt>
      <trkpt lat="37.7561170" lon="-122.4371399"></trkpt>
      <trkpt lat="37.7561170" lon="-122.4370505"></trkpt>
      <trkpt lat="37.7561170" lon="-122.4369610"></trkpt>
      <trkpt lat="37.7561170" lon="-122.4368715"></trkpt>
      <trkpt lat="37.7561170" lon="-122.4367820"></trkpt>
      <trkpt lat="37.7561170" lon="-122.4366926"></trkpt>
      <trkpt lat="37.7561170" lon="-122.4366031"></trkpt>
      <trkpt lat="37.7561170" lon="-122.4365136"></trkpt>
      <trkpt lat="37.7561170" lon="-122.4364241"></trkpt>
      <trkpt lat="37.7561170" lon="-122.4363347"></trkpt>
      <trkpt lat="37.7561170" lon="-122.4362452"></trkpt>
      <trkpt lat="37.7561170" lon="-122.4361557"></trkpt>
      <trkpt lat="37.7561170" lon="-122.4360662"></trkpt>
      <trkpt lat="37.7561170" lon="-122.4359767"></trkpt>
      <trkpt lat="37.7561170" lon="-122.4358873"></trkpt>
      <trkpt lat="37.7561170" lon="-122.4357978"></trkpt>
      <trkpt lat="37.7561170" lon="-122.4357083"></trkpt>
      <trkpt lat="37.7561170" lon="-122.4356188"></trkpt>
      <trkpt lat="37.7561170" lon="-122.4355294"></trkpt>
      <trkpt lat="37.7560475" lon="-122.4355294"></trkpt>
      <trkpt lat="37.7559780" lon="-122.4355294"></trkpt>
      <trkpt lat="37.7559084" lon="-122.4355294"></trkpt>
      <trkpt lat="37.7558389" lon="-122.4355294"></trkpt>
      <trkpt lat="37.7557694" lon="-122.4355294"></trkpt>
      <trkpt lat="37.7556999" lon="-122.4355294"></trkpt>
      <trkpt lat="37.7556303" lon="-122.4355294"></trkpt>
      <trkpt lat="37.7555608" lon="-122.4355294"></trkpt>
      <trkpt lat="37.7554913" lon="-122.4355294"></trkpt>
      <trkpt lat="37.7554217" lon="-122.4355294"></trkpt>
      <trkpt lat="37.7553522" lon="-122.4355294"></trkpt>
      <trkpt lat="37.7552827" lon="-122.4355294"></trkpt>
      <trkpt lat="37.7552132" lon="-122.4355294"></trkpt>
      <trkpt lat="37.7551436" lon="-122.4355294"></trkpt>
      <trkpt lat="37.7550741" lon="-122.4355294"></trkpt>
      <trkpt lat="37.7550046" lon="-122.4355294"></trkpt>
      <trkpt lat="37.7549350" lon="-122.4355294"></trkpt>
      <trkpt lat="37.7548655" lon="-122.4355294"></trkpt>
      <trkpt lat="37.7547960" lon="-122.4355294"></trkpt>
      <trkpt lat="37.7547264" lon="-122.4355294"></trkpt>
      <trkpt lat="37.7546569" lon="-122.4355294"></trkpt>
      <trkpt lat="37.7545874" lon="-122.4355294"></trkpt>
      <trkpt lat="37.7545179" lon="-122.4355294"></trkpt>
      <trkpt lat="37.7544483" lon="-122.4355294"></trkpt>
      <trkpt lat="37.7543788" lon="-122.4355294"></trkpt>
      <trkpt lat="37.7543788" lon="-122.4356188"></trkpt>
      <trkpt lat="37.7543788" lon="-122.4357083"></trkpt>
      <trkpt lat="37.7543788" lon="-122.4357978"></trkpt>
      <trkpt lat="37.7543788" lon="-122.4358873"></trkpt>
      <trkpt lat="37.7543788" lon="-122.4359767"></trkpt>
      <trkpt lat="37.7543788" lon="-122.4360662"></trkpt>
      <trkpt lat="37.7543788" lon="-122.4361557"></trkpt>
      <trkpt lat="37.7543788" lon="-122.4362452"></trkpt>
      <trkpt lat="37.7543788" lon="-122.4363347"></trkpt>
      <trkpt lat="37.7543788" lon="-122.4364241"></trkpt>
      <trkpt lat="37.7543788" lon="-122.4365136"></trkpt>
      <trkpt lat="37.7543788" lon="-122.4366031"></trkpt>
      <trkpt lat="37.7543788" lon="-122.4366926"></trkpt>
      <trkpt lat="37.7543788" lon="-122.4367820"></trkpt>
      <trkpt lat="37.7543788" lon="-122.4368715"></trkpt>
      <trkpt lat="37.7543788" lon="-122.4369610"></trkpt>
      <trkpt lat="37.7543788" lon="-122.4370505"></trkpt>
      <trkpt lat="37.7543788" lon="-122.4371399"></trkpt>
      <trkpt lat="37.7543788" lon="-122.4372294"></trkpt>
      <trkpt lat="37.7543788" lon="-122.4373189"></trkpt>
      <trkpt lat="37.7543788" lon="-122.4374084"></trkpt>
      <trkpt lat="37.7543788" lon="-122.4374978"></trkpt>
      <trkpt lat="37.7543788" lon="-122.4375873"></trkpt>
      <trkpt lat="37.7543788" lon="-122.4376768"></trkpt>
      <trkpt lat="37.7544514" lon="-122.4353985"></trkpt>
      <trkpt lat="37.7544393" lon="-122.4353896"></trkpt>
      <trkpt lat="37.7544272" lon="-122.4353808"></trkpt>
      <trkpt lat="37.7544151" lon="-122.4353720"></trkpt>
      <trkpt lat="37.7544030" lon="-122.4353631"></trkpt>
      <trkpt lat="37.7543909" lon="-122.4353543"></trkpt>
      <trkpt lat="37.7543788" lon="-122.4353455"></trkpt>
      <trkpt lat="37.7543667" lon="-122.4353366"></trkpt>
      <trkpt lat="37.7543546" lon="-122.4353278"></trkpt>
      <trkpt lat="37.7543425" lon="-122.4353189"></trkpt>
      <trkpt lat="37.7543425" lon="-122.4353366"></trkpt>
      <trkpt lat="37.7543425" lon="-122.4353543"></trkpt>
      <trkpt lat="37.7543425" lon="-122.4353720"></trkpt>
      <trkpt lat="37.7543425" lon="-122.4353896"></trkpt>
      <trkpt lat="37.7543425" lon="-122.4354073"></trkpt>
      <trkpt lat="37.7543425" lon="-122.4354250"></trkpt>
      <trkpt lat="37.7543425" lon="-122.4354427"></trkpt>
      <trkpt lat="37.7543425" lon="-122.4354603"></trkpt>
      <trkpt lat="37.7543425" lon="-122.4354780"></trkpt>
      <trkpt lat="37.7543546" lon="-122.4354692"></trkpt>
      <trkpt lat="37.7543667" lon="-122.4354603"></trkpt>
      <trkpt lat="37.7543788" lon="-122.4354515"></trkpt>
      <trkpt lat="37.7543909" lon="-122.4354427"></trkpt>
      <trkpt lat="37.7544030" lon="-122.4354338"></trkpt>
      <trkpt lat="37.7544151" lon="-122.4354250"></trkpt>
      <trkpt lat="37.7544272" lon="-122.4354161"></trkpt>
      <trkpt lat="37.7544393" lon="-122.4354073"></trkpt>
      <trkpt lat="37.7544514" lon="-122.4353985"></trkpt>
      <trkpt lat="37.7544417" lon="-122.4330811"></trkpt>
      <trkpt lat="37.7544417" lon="-122.4330634"></trkpt>
      <trkpt lat="37.7544417" lon="-122.4330457"></trkpt>
      <trkpt lat="37.7544417" lon="-122.4330280"></trkpt>
      <trkpt lat="37.7544417" lon="-122.4330104"></trkpt>
      <trkpt lat="37.7544417" lon="-122.4329927"></trkpt>
      <trkpt lat="37.7544417" lon="-122.4329750"></trkpt>
      <trkpt lat="37.7544417" lon="-122.4329573"></trkpt>
      <trkpt lat="37.7544417" lon="-122.4329397"></trkpt>
      <trkpt lat="37.7544417" lon="-122.4329220"></trkpt>
      <trkpt lat="37.7544320" lon="-122.4329342"></trkpt>
      <trkpt lat="37.7544223" lon="-122.4329465"></trkpt>
      <trkpt lat="37.7544127" lon="-122.4329587"></trkpt>
      <trkpt lat="37.7544030" lon="-122.4329709"></trkpt>
      <trkpt lat="37.7543933" lon="-122.4329832"></trkpt>
      <trkpt lat="37.7543836" lon="-122.4329954"></trkpt>
      <trkpt lat="37.7543740" lon="-122.4330076"></trkpt>
      <trkpt lat="37.7543643" lon="-122.4330199"></trkpt>
      <trkpt lat="37.7543546" lon="-122.4330321"></trkpt>
      <trkpt lat="37.7543449" lon="-122.4330444"></trkpt>
      <trkpt lat="37.7543353" lon="-122.4330566"></trkpt>
      <trkpt lat="37.7543256" lon="-122.4330688"></trkpt>
      <trkpt lat="37.7543159" lon="-122.4330811"></trkpt>
      <trkpt lat="37.7543159" lon="-122.4330634"></trkpt>
      <trkpt lat="37.7543159" lon="-122.4330457"></trkpt>
      <trkpt lat="37.7543159" lon="-122.4330280"></trkpt>
      <trkpt lat="37.7543159" lon="-122.4330104"></trkpt>
      <trkpt lat="37.7543159" lon="-122.4329927"></trkpt>
      <trkpt lat="37.7543159" lon="-122.4329750"></trkpt>
      <trkpt lat="37.7543159" lon="-122.4329573"></trkpt>
      <trkpt lat="37.7543159" lon="-122.4329397"></trkpt>
      <trkpt lat="37.7543159" lon="-122.4329220"></trkpt>
      <trkpt lat="37.7584212" lon="-122.4328706"></trkpt>
      <trkpt lat="37.7584212" lon="-122.4327812"></trkpt>
      <trkpt lat="37.7584212" lon="-122.4326917"></trkpt>
      <trkpt lat="37.7584212" lon="-122.4326022"></trkpt>
      <trkpt lat="37.7584212" lon="-122.4325127"></trkpt>
      <trkpt lat="37.7584212" lon="-122.4324233"></trkpt>
      <trkpt lat="37.7584212" lon="-122.4323338"></trkpt>
      <trkpt lat="37.7584212" lon="-122.4322443"></trkpt>
      <trkpt lat="37.7584212" lon="-122.4321548"></trkpt>
      <trkpt lat="37.7584212" lon="-122.4320653"></trkpt>
      <trkpt lat="37.7584212" lon="-122.4319759"></trkpt>
      <trkpt lat="37.7584212" lon="-122.4318864"></trkpt>
      <trkpt lat="37.7584212" lon="-122.4317969"></trkpt>
      <trkpt lat="37.7584212" lon="-122.4317074"></trkpt>
      <trkpt lat="37.7584212" lon="-122.4316180"></trkpt>
      <trkpt lat="37.7584212" lon="-122.4315285"></trkpt>
      <trkpt lat="37.7584212" lon="-122.4314390"></trkpt>
      <trkpt lat="37.7584212" lon="-122.4313495"></trkpt>
      <trkpt lat="37.7584212" lon="-122.4312601"></trkpt>
      <trkpt lat="37.7584212" lon="-122.4311706"></trkpt>
      <trkpt lat="37.7584212" lon="-122.4310811"></trkpt>
      <trkpt lat="37.7584212" lon="-122.4309916"></trkpt>
      <trkpt lat="37.7584212" lon="-122.4309022"></trkpt>
      <trkpt lat="37.7584212" lon="-122.4308127"></trkpt>
      <trkpt lat="37.7584212" lon="-122.4307232"></trkpt>
      <trkpt lat="37.7583517" lon="-122.4307232"></trkpt>
      <trkpt lat="37.7582821" lon="-122.4307232"></trkpt>
      <trkpt lat="37.7582126" lon="-122.4307232"></trkpt>
      <trkpt lat="37.7581431" lon="-122.4307232"></trkpt>
      <trkpt lat="37.7580736" lon="-122.4307232"></trkpt>
      <trkpt lat="37.7580040" lon="-122.4307232"></trkpt>
      <trkpt lat="37.7579345" lon="-122.4307232"></trkpt>
      <trkpt lat="37.7578650" lon="-122.4307232"></trkpt>
      <trkpt lat="37.7577954" lon="-122.4307232"></trkpt>
      <trkpt lat="37.7577259" lon="-122.4307232"></trkpt>
      <trkpt lat="37.7576564" lon="-122.4307232"></trkpt>
      <trkpt lat="37.7575868" lon="-122.4307232"></trkpt>
      <trkpt lat="37.7575173" lon="-122.4307232"></trkpt>
      <trkpt lat="37.7574478" lon="-122.4307232"></trkpt>
      <trkpt lat="37.7573783" lon="-122.4307232"></trkpt>
      <trkpt lat="37.7573087" lon="-122.4307232"></trkpt>
      <trkpt lat="37.7572392" lon="-122.4307232"></trkpt>
      <trkpt lat="37.7571697" lon="-122.4307232"></trkpt>
      <trkpt lat="37.7571001" lon="-122.4307232"></trkpt>
      <trkpt lat="37.7570306" lon="-122.4307232"></trkpt>
      <trkpt lat="37.7569611" lon="-122.4307232"></trkpt>
      <trkpt lat="37.7568916" lon="-122.4307232"></trkpt>
      <trkpt lat="37.7568220" lon="-122.4307232"></trkpt>
      <trkpt lat="37.7567525" lon="-122.4307232"></trkpt>
      <trkpt lat="37.7566830" lon="-122.4307232"></trkpt>
      <trkpt lat="37.7566830" lon="-122.4308127"></trkpt>
      <trkpt lat="37.7566830" lon="-122.4309022"></trkpt>
      <trkpt lat="37.7566830" lon="-122.4309916"></trkpt>
      <trkpt lat="37.7566830" lon="-122.4310811"></trkpt>
      <trkpt lat="37.7566830" lon="-122.4311706"></trkpt>
      <trkpt lat="37.7566830" lon="-122.4312601"></trkpt>
      <trkpt lat="37.7566830" lon="-122.4313495"></trkpt>
      <trkpt lat="37.7566830" lon="-122.4314390"></trkpt>
      <trkpt lat="37.7566830" lon="-122.4315285"></trkpt>
      <trkpt lat="37.7566830" lon="-122.4316180"></trkpt>
      <trkpt lat="37.7566830" lon="-122.4317074"></trkpt>
      <trkpt lat="37.7566830" lon="-122.4317969"></trkpt>
      <trkpt lat="37.7566830" lon="-122.4318864"></trkpt>
      <trkpt lat="37.7566830" lon="-122.4319759"></trkpt>
      <trkpt lat="37.7566830" lon="-122.4320653"></trkpt>
      <trkpt lat="37.7566830" lon="-122.4321548"></trkpt>
      <trkpt lat="37.7566830" lon="-122.4322443"></trkpt>
      <trkpt lat="37.7566830" lon="-122.4323338"></trkpt>
      <trkpt lat="37.7566830" lon="-122.4324233"></trkpt>
      <trkpt lat="37.7566830" lon="-122.4325127"></trkpt>
      <trkpt lat="37.7567556" lon="-122.4325923"></trkpt>
      <trkpt lat="37.7567435" lon="-122.4325834"></trkpt>
      <trkpt lat="37.7567314" lon="-122.4325746"></trkpt>
      <trkpt lat="37.7567193" lon="-122.4325658"></trkpt>
      <trkpt lat="37.7567072" lon="-122.4325569"></trkpt>
      <trkpt lat="37.7566951" lon="-122.4325481"></trkpt>
      <trkpt lat="37.7566830" lon="-122.4325392"></trkpt>
      <trkpt lat="37.7566709" lon="-122.4325304"></trkpt>
      <trkpt lat="37.7566588" lon="-122.4325216"></trkpt>
      <trkpt lat="37.7566467" lon="-122.4325127"></trkpt>
      <trkpt lat="37.7566467" lon="-122.4325304"></trkpt>
      <trkpt lat="37.7566467" lon="-122.4325481"></trkpt>
      <trkpt lat="37.7566467" lon="-122.4325658"></trkpt>
      <trkpt lat="37.7566467" lon="-122.4325834"></trkpt>
      <trkpt lat="37.7566467" lon="-122.4326011"></trkpt>
      <trkpt lat="37.7566467" lon="-122.4326188"></trkpt>
      <trkpt lat="37.7566467" lon="-122.4326365"></trkpt>
      <trkpt lat="37.7566467" lon="-122.4326541"></trkpt>
      <trkpt lat="37.7566467" lon="-122.4326718"></trkpt>
      <trkpt lat="37.7566588" lon="-122.4326630"></trkpt>
      <trkpt lat="37.7566709" lon="-122.4326541"></trkpt>
      <trkpt lat="37.7566830" lon="-122.4326453"></trkpt>
      <trkpt lat="37.7566951" lon="-122.4326365"></trkpt>
      <trkpt lat="37.7567072" lon="-122.4326276"></trkpt>
      <trkpt lat="37.7567193" lon="-122.4326188"></trkpt>
      <trkpt lat="37.7567314" lon="-122.4326099"></trkpt>
      <trkpt lat="37.7567435" lon="-122.4326011"></trkpt>
      <trkpt lat="37.7567556" lon="-122.4325923"></trkpt>
      <trkpt lat="37.7561799" lon="-122.4326718"></trkpt>
      <trkpt lat="37.7561799" lon="-122.4326541"></trkpt>
      <trkpt lat="37.7561799" lon="-122.4326364"></trkpt>
      <trkpt lat="37.7561799" lon="-122.4326188"></trkpt>
      <trkpt lat="37.7561799" lon="-122.4326011"></trkpt>
      <trkpt lat="37.7561799" lon="-122.4325834"></trkpt>
      <trkpt lat="37.7561799" lon="-122.4325658"></trkpt>
      <trkpt lat="37.7561799" lon="-122.4325481"></trkpt>
      <trkpt lat="37.7561799" lon="-122.4325304"></trkpt>
      <trkpt lat="37.7561799" lon="-122.4325127"></trkpt>
      <trkpt lat="37.7561702" lon="-122.4325250"></trkpt>
      <trkpt lat="37.7561606" lon="-122.4325372"></trkpt>
      <trkpt lat="37.7561509" lon="-122.4325494"></trkpt>
      <trkpt lat="37.7561412" lon="-122.4325617"></trkpt>
      <trkpt lat="37.7561315" lon="-122.4325739"></trkpt>
      <trkpt lat="37.7561219" lon="-122.4325861"></trkpt>
      <trkpt lat="37.7561122" lon="-122.4325984"></trkpt>
      <trkpt lat="37.7561025" lon="-122.4326106"></trkpt>
      <trkpt lat="37.7560928" lon="-122.4326229"></trkpt>
      <trkpt lat="37.7560832" lon="-122.4326351"></trkpt>
      <trkpt lat="37.7560735" lon="-122.4326473"></trkpt>
      <trkpt lat="37.7560638" lon="-122.4326596"></trkpt>
      <trkpt lat="37.7560542" lon="-122.4326718"></trkpt>
      <trkpt lat="37.7560542" lon="-122.4326541"></trkpt>
      <trkpt lat="37.7560542" lon="-122.4326364"></trkpt>
      <trkpt lat="37.7560542" lon="-122.4326188"></trkpt>
      <trkpt lat="37.7560542" lon="-122.4326011"></trkpt>
      <trkpt lat="37.7560542" lon="-122.4325834"></trkpt>
      <trkpt lat="37.7560542" lon="-122.4325658"></trkpt>
      <trkpt lat="37.7560542" lon="-122.4325481"></trkpt>
      <trkpt lat="37.7560542" lon="-122.4325304"></trkpt>
      <trkpt lat="37.7560542" lon="-122.4325127"></trkpt>
      <trkpt lat="37.7561170" lon="-122.4325127"></trkpt>
      <trkpt lat="37.7561170" lon="-122.4324233"></trkpt>
      <trkpt lat="37.7561170" lon="-122.4323338"></trkpt>
      <trkpt lat="37.7561170" lon="-122.4322443"></trkpt>
      <trkpt lat="37.7561170" lon="-122.4321548"></trkpt>
      <trkpt lat="37.7561170" lon="-122.4320653"></trkpt>
      <trkpt lat="37.7561170" lon="-122.4319759"></trkpt>
      <trkpt lat="37.7561170" lon="-122.4318864"></trkpt>
      <trkpt lat="37.7561170" lon="-122.4317969"></trkpt>
      <trkpt lat="37.7561170" lon="-122.4317074"></trkpt>
      <trkpt lat="37.7561170" lon="-122.4316180"></trkpt>
      <trkpt lat="37.7561170" lon="-122.4315285"></trkpt>
      <trkpt lat="37.7561170" lon="-122.4314390"></trkpt>
      <trkpt lat="37.7561170" lon="-122.4313495"></trkpt>
      <trkpt lat="37.7561170" lon="-122.4312601"></trkpt>
      <trkpt lat="37.7561170" lon="-122.4311706"></trkpt>
      <trkpt lat="37.7561170" lon="-122.4310811"></trkpt>
      <trkpt lat="37.7561170" lon="-122.4309916"></trkpt>
      <trkpt lat="37.7561170" lon="-122.4309022"></trkpt>
      <trkpt lat="37.7561170" lon="-122.4308127"></trkpt>
      <trkpt lat="37.7561170" lon="-122.4307232"></trkpt>
      <trkpt lat="37.7560475" lon="-122.4307232"></trkpt>
      <trkpt lat="37.7559780" lon="-122.4307232"></trkpt>
      <trkpt lat="37.7559084" lon="-122.4307232"></trkpt>
      <trkpt lat="37.7558389" lon="-122.4307232"></trkpt>
      <trkpt lat="37.7557694" lon="-122.4307232"></trkpt>
      <trkpt lat="37.7556999" lon="-122.4307232"></trkpt>
      <trkpt lat="37.7556303" lon="-122.4307232"></trkpt>
      <trkpt lat="37.7555608" lon="-122.4307232"></trkpt>
      <trkpt lat="37.7554913" lon="-122.4307232"></trkpt>
      <trkpt lat="37.7554217" lon="-122.4307232"></trkpt>
      <trkpt lat="37.7553522" lon="-122.4307232"></trkpt>
      <trkpt lat="37.7552827" lon="-122.4307232"></trkpt>
      <trkpt lat="37.7552132" lon="-122.4307232"></trkpt>
      <trkpt lat="37.7551436" lon="-122.4307232"></trkpt>
      <trkpt lat="37.7550741" lon="-122.4307232"></trkpt>
      <trkpt lat="37.7550046" lon="-122.4307232"></trkpt>
      <trkpt lat="37.7549350" lon="-122.4307232"></trkpt>
      <trkpt lat="37.7548655" lon="-122.4307232"></trkpt>
      <trkpt lat="37.7547960" lon="-122.4307232"></trkpt>
      <trkpt lat="37.7547264" lon="-122.4307232"></trkpt>
      <trkpt lat="37.7546569" lon="-122.4307232"></trkpt>
      <trkpt lat="37.7545874" lon="-122.4307232"></trkpt>
      <trkpt lat="37.7545179" lon="-122.4307232"></trkpt>
      <trkpt lat="37.7544483" lon="-122.4307232"></trkpt>
      <trkpt lat="37.7543788" lon="-122.4307232"></trkpt>
      <trkpt lat="37.7543788" lon="-122.4308127"></trkpt>
      <trkpt lat="37.7543788" lon="-122.4309022"></trkpt>
      <trkpt lat="37.7543788" lon="-122.4309916"></trkpt>
      <trkpt lat="37.7543788" lon="-122.4310811"></trkpt>
      <trkpt lat="37.7543788" lon="-122.4311706"></trkpt>
      <trkpt lat="37.7543788" lon="-122.4312601"></trkpt>
      <trkpt lat="37.7543788" lon="-122.4313495"></trkpt>
      <trkpt lat="37.7543788" lon="-122.4314390"></trkpt>
      <trkpt lat="37.7543788" lon="-122.4315285"></trkpt>
      <trkpt lat="37.7543788" lon="-122.4316180"></trkpt>
      <trkpt lat="37.7543788" lon="-122.4317074"></trkpt>
      <trkpt lat="37.7543788" lon="-122.4317969"></trkpt>
      <trkpt lat="37.7543788" lon="-122.4318864"></trkpt>
      <trkpt lat="37.7543788" lon="-122.4319759"></trkpt>
      <trkpt lat="37.7543788" lon="-122.4320653"></trkpt>
      <trkpt lat="37.7543788" lon="-122.4321548"></trkpt>
      <trkpt lat="37.7543788" lon="-122.4322443"></trkpt>
      <trkpt lat="37.7543788" lon="-122.4323338"></trkpt>
      <trkpt lat="37.7543788" lon="-122.4324233"></trkpt>
      <trkpt lat="37.7543788" lon="-122.4325127"></trkpt>
      <trkpt lat="37.7543788" lon="-122.4326022"></trkpt>
      <trkpt lat="37.7543788" lon="-122.4326917"></trkpt>
      <trkpt lat="37.7543788" lon="-122.4327812"></trkpt>
      <trkpt lat="37.7543788" lon="-122.4328706"></trkpt>
    </trkseg>
  </trk>
</gpx>
